OBJECT_NAME,OBJECT_ID,EPOCH,MEAN_MOTION,ECCENTRICITY,INCLINATION,RA_OF_ASC_NODE,ARG_OF_PERICENTER,MEAN_ANOMALY,EPHEMERIS_TYPE,CLASSIFICATION_TYPE,NORAD_CAT_ID,ELEMENT_SET_NO,REV_AT_EPOCH,BSTAR,MEAN_MOTION_DOT,MEAN_MOTION_DDOT
FENGYUN 3D,2017-072A,2026-07-15T14:51:31.718304,14.19745129,.00014942,99.0139,171.5577,12.9774,347.1439,0,U,43010,999,44902,.88086583E-4,.14E-5,0
NOAA 20 (JPSS-1),2017-073A,2026-07-15T13:09:30.407904,14.19516480,.00013977,98.7772,135.7596,124.4858,235.6450,0,U,43013,999,44849,.24705895E-4,.8E-7,0
GOES 17,2018-022A,2026-07-15T14:39:20.509056,1.00270998,.00005508,1.0080,85.2498,79.8372,258.7068,0,U,43226,999,3070,0,-.193E-5,0
SENTINEL-3B,2018-039A,2026-07-15T04:06:59.118048,14.26736282,.00011352,98.6236,263.3004,119.7364,240.3929,0,U,43437,999,42811,.33812616E-4,.38E-6,0
FENGYUN 2H,2018-050A,2026-07-15T15:27:23.402304,1.00267093,.00023105,3.1020,78.7319,133.7788,31.9491,0,U,43491,999,2972,0,-.138E-5,0
METOP-C,2018-087A,2026-07-15T13:47:48.761952,14.21519167,.00022163,98.6630,255.6574,93.2289,266.9142,0,U,43689,999,39886,.44045397E-4,.53E-6,0
GEO-KOMPSAT-2A,2018-100A,2026-07-14T17:27:00.252000,1.00269956,.00019612,0.0287,108.8702,352.7689,220.9550,0,U,43823,999,2790,0,-.352E-5,0
METEOR-M2 2,2019-038A,2026-07-15T13:17:28.385664,14.24372457,.00007571,98.9153,184.2599,3.3989,356.7195,0,U,44387,999,36533,-.43782221E-4,-.147E-5,0
ARKTIKA-M 1,2021-016A,2026-07-14T09:46:38.558208,2.00611590,.7297332,63.2662,53.6722,270.0591,14.4994,0,U,47719,999,3933,0,-.301E-5,0
FENGYUN 3E,2021-062A,2026-07-15T14:23:46.672800,14.19905805,.00022781,98.7495,199.6916,37.9591,322.1746,0,U,49008,999,26061,-.8828977E-4,-.231E-5,0
GOES 18,2022-021A,2026-07-14T23:01:46.818624,1.00270847,.00004,0.0194,126.7770,62.2107,312.2647,0,U,51850,999,687,0,.88E-6,0
NOAA 21 (JPSS-2),2022-150A,2026-07-15T12:14:30.526656,14.19541065,.00028392,98.7059,134.8236,103.9851,256.1641,0,U,54234,999,19056,.27565967E-4,.15E-6,0
METEOSAT-12 (MTG-I1),2022-170C,2026-07-15T08:14:10.478976,1.00267722,.00038057,0.7253,19.7595,81.8745,314.7768,0,U,54743,999,1326,0,-.18E-6,0
TIANMU-1 03,2023-039A,2026-07-15T13:30:43.883424,15.48050346,.00025498,97.5237,11.6611,25.9087,334.2290,0,U,55973,999,18522,.18116161E-3,.9388E-4,0
TIANMU-1 04,2023-039B,2026-07-15T12:59:26.972160,15.48676450,.00030004,97.5176,10.7944,11.3688,348.7630,0,U,55974,999,18523,.18716097E-3,.9918E-4,0
TIANMU-1 05,2023-039C,2026-07-15T13:05:02.363136,15.47975208,.0002927,97.5221,11.2467,44.5007,315.6478,0,U,55975,999,18520,.18609612E-3,.9622E-4,0
TIANMU-1 06,2023-039D,2026-07-15T13:06:56.877696,15.48573427,.00030224,97.5229,11.9126,35.8080,324.3373,0,U,55976,999,18523,.18684986E-3,.9865E-4,0
FENGYUN 3G,2023-055A,2026-07-15T14:32:13.529760,15.53800947,.00070221,49.9905,199.4552,57.8714,302.2934,0,U,56232,999,18442,.23832822E-3,.1518E-3,0
METEOR-M2 3,2023-091A,2026-07-15T14:59:54.639744,14.24048961,.00051439,98.6068,251.0191,89.3450,270.8318,0,U,57166,999,15856,.13318423E-4,-.13E-6,0
TIANMU-1 07,2023-101A,2026-07-15T14:46:51.231936,15.30118723,.00037232,97.2577,246.6344,63.9580,296.2044,0,U,57399,999,16599,.12019444E-3,.3429E-4,0
TIANMU-1 08,2023-101B,2026-07-15T13:58:42.566304,15.30121587,.00045913,97.2565,246.3683,45.3170,314.8445,0,U,57400,999,16598,.11715149E-3,.3341E-4,0
TIANMU-1 09,2023-101C,2026-07-15T13:33:52.275168,15.30163448,.00043409,97.2523,245.7529,64.1535,296.0154,0,U,57401,999,16598,.12567765E-3,.3594E-4,0
TIANMU-1 10,2023-101D,2026-07-15T14:22:10.865568,15.30136434,.00056177,97.2602,246.8651,53.2493,306.9263,0,U,57402,999,16598,.11859678E-3,.3385E-4,0
FENGYUN 3F,2023-111A,2026-07-15T13:59:37.984128,14.19943437,.00012667,98.6825,266.0611,76.2327,283.8991,0,U,57490,999,15289,.27087812E-4,.14E-6,0
ARKTIKA-M 2,2023-198A,2026-07-15T04:12:00.074304,2.00608099,.69107374,63.2178,151.2342,267.3397,18.7345,0,U,58584,999,1888,0,.129E-5,0
TIANMU-1 11,2023-205A,2026-07-15T14:55:42.951360,15.27266560,.0006799,97.3439,217.7368,260.1204,99.9268,0,U,58645,999,14186,.11069406E-3,.2885E-4,0
TIANMU-1 12,2023-205B,2026-07-15T14:16:02.358336,15.27098265,.00058275,97.3429,217.4565,232.7226,127.3482,0,U,58646,999,14184,.1195599E-3,.3105E-4,0
TIANMU-1 13,2023-205C,2026-07-15T13:29:50.442432,15.27090686,.00058373,97.3456,217.7050,210.7463,149.3435,0,U,58647,999,14183,.11831952E-3,.3072E-4,0
TIANMU-1 14,2023-205D,2026-07-15T14:41:42.406368,15.27134615,.00064673,97.3393,216.9137,218.3780,141.7000,0,U,58648,999,14184,.11289372E-3,.2932E-4,0
TIANMU-1 19,2023-208A,2026-07-15T13:44:55.480704,15.31979103,.00046378,97.4530,313.0287,196.9591,163.1496,0,U,58660,999,14167,.15136426E-3,.4595E-4,0
