FENGYUN 3D              
1 43010U 17072A   26196.61911711  .00000140  00000+0  88087-4 0  9995
2 43010  99.0139 171.5577 0001494  12.9774 347.1439 14.19745129449025
NOAA 20 (JPSS-1)        
1 43013U 17073A   26196.54826861  .00000008  00000+0  24706-4 0  9993
2 43013  98.7772 135.7596 0001397 124.4858 235.6450 14.19516480448494
GOES 17                 
1 43226U 18022A   26196.61065404 -.00000193  00000+0  00000+0 0  9992
2 43226   1.0080  85.2498 0000550  79.8372 258.7068  1.00270998 30702
SENTINEL-3B             
1 43437U 18039A   26196.17151757  .00000038  00000+0  33813-4 0  9992
2 43437  98.6236 263.3004 0001135 119.7364 240.3929 14.26736282428112
FENGYUN 2H              
1 43491U 18050A   26196.64402086 -.00000138  00000+0  00000+0 0  9990
2 43491   3.1020  78.7319 0002310 133.7788  31.9491  1.00267093 29722
METOP-C                 
1 43689U 18087A   26196.57486993  .00000053  00000+0  44045-4 0  9997
2 43689  98.6630 255.6574 0002216  93.2289 266.9142 14.21519167398863
GEO-KOMPSAT-2A          
1 43823U 18100A   26195.72708625 -.00000352  00000+0  00000+0 0  9999
2 43823   0.0287 108.8702 0001961 352.7689 220.9550  1.00269956 27901
METEOR-M2 2             
1 44387U 19038A   26196.55380076 -.00000147  00000+0 -43782-4 0  9996
2 44387  98.9153 184.2599 0000757   3.3989 356.7195 14.24372457365337
ARKTIKA-M 1             
1 47719U 21016A   26195.40739072 -.00000301  00000+0  00000+0 0  9996
2 47719  63.2662  53.6722 7297332 270.0591  14.4994  2.00611590 39330
FENGYUN 3E              
1 49008U 21062A   26196.59984575 -.00000231  00000+0 -88290-4 0  9996
2 49008  98.7495 199.6916 0002278  37.9591 322.1746 14.19905805260611
GOES 18                 
1 51850U 22021A   26195.95956966  .00000088  00000+0  00000+0 0  9998
2 51850   0.0194 126.7770 0000400  62.2107 312.2647  1.00270847  6872
NOAA 21 (JPSS-2)        
1 54234U 22150A   26196.51007554  .00000015  00000+0  27566-4 0  9994
2 54234  98.7059 134.8236 0002839 103.9851 256.1641 14.19541065190566
METEOSAT-12 (MTG-I1)    
1 54743U 22170C   26196.34317684 -.00000018  00000+0  00000+0 0  9993
2 54743   0.7253  19.7595 0003805  81.8745 314.7768  1.00267722 13262
TIANMU-1 03             
1 55973U 23039A   26196.56300791  .00009388  00000+0  18116-3 0  9998
2 55973  97.5237  11.6611 0002549  25.9087 334.2290 15.48050346185228
TIANMU-1 04             
1 55974U 23039B   26196.54128440  .00009918  00000+0  18716-3 0  9991
2 55974  97.5176  10.7944 0003000  11.3688 348.7630 15.48676450185238
TIANMU-1 05             
1 55975U 23039C   26196.54516624  .00009622  00000+0  18610-3 0  9992
2 55975  97.5221  11.2467 0002927  44.5007 315.6478 15.47975208185208
TIANMU-1 06             
1 55976U 23039D   26196.54649164  .00009865  00000+0  18685-3 0  9990
2 55976  97.5229  11.9126 0003022  35.8080 324.3373 15.48573427185239
FENGYUN 3G              
1 56232U 23055A   26196.60571215  .00015180  00000+0  23833-3 0  9990
2 56232  49.9905 199.4552 0007022  57.8714 302.2934 15.53800947184428
METEOR-M2 3             
1 57166U 23091A   26196.62493796 -.00000013  00000+0  13318-4 0  9994
2 57166  98.6068 251.0191 0005143  89.3450 270.8318 14.24048961158568
TIANMU-1 07             
1 57399U 23101A   26196.61587074  .00003429  00000+0  12019-3 0  9995
2 57399  97.2577 246.6344 0003723  63.9580 296.2044 15.30118723165995
TIANMU-1 08             
1 57400U 23101B   26196.58243711  .00003341  00000+0  11715-3 0  9996
2 57400  97.2565 246.3683 0004591  45.3170 314.8445 15.30121587165984
TIANMU-1 09             
1 57401U 23101C   26196.56518837  .00003594  00000+0  12568-3 0  9996
2 57401  97.2523 245.7529 0004340  64.1535 296.0154 15.30163448165987
TIANMU-1 10             
1 57402U 23101D   26196.59873687  .00003385  00000+0  11860-3 0  9999
2 57402  97.2602 246.8651 0005617  53.2493 306.9263 15.30136434165981
FENGYUN 3F              
1 57490U 23111A   26196.58307852  .00000014  00000+0  27088-4 0  9998
2 57490  98.6825 266.0611 0001266  76.2327 283.8991 14.19943437152899
ARKTIKA-M 2             
1 58584U 23198A   26196.17500086  .00000129  00000+0  00000+0 0  9994
2 58584  63.2178 151.2342 6910737 267.3397  18.7345  2.00608099 18884
TIANMU-1 11             
1 58645U 23205A   26196.62202490  .00002885  00000+0  11069-3 0  9991
2 58645  97.3439 217.7368 0006799 260.1204  99.9268 15.27266560141868
TIANMU-1 12             
1 58646U 23205B   26196.59447174  .00003105  00000+0  11956-3 0  9999
2 58646  97.3429 217.4565 0005827 232.7226 127.3482 15.27098265141841
TIANMU-1 13             
1 58647U 23205C   26196.56238938  .00003072  00000+0  11832-3 0  9999
2 58647  97.3456 217.7050 0005837 210.7463 149.3435 15.27090686141834
TIANMU-1 14             
1 58648U 23205D   26196.61229637  .00002932  00000+0  11289-3 0  9992
2 58648  97.3393 216.9137 0006467 218.3780 141.7000 15.27134615141844
TIANMU-1 19             
1 58660U 23208A   26196.57286436  .00004595  00000+0  15136-3 0  9996
2 58660  97.4530 313.0287 0004637 196.9591 163.1496 15.31979103141677
